[{"OBJECT_NAME":"STARLINK-30939","OBJECT_ID":"2023-178V","EPOCH":"2025-07-29T14:14:59.180064","MEAN_MOTION":15.30184195,"ECCENTRICITY":0.0001125,"INCLINATION":53.1604,"RA_OF_ASC_NODE":317.3883,"ARG_OF_PERICENTER":96.4805,"MEAN_ANOMALY":263.6324,"EPHEMERIS_TYPE":0,"CLASSIFICATION_TYPE":"U","NORAD_CAT_ID":58393,"ELEMENT_SET_NO":999,"REV_AT_EPOCH":9556,"BSTAR":2.5503e-5,"MEAN_MOTION_DOT":3.96e-6,"MEAN_MOTION_DDOT":0},{"OBJECT_NAME":"STARLINK-30887","OBJECT_ID":"2023-178W","EPOCH":"2025-07-29T13:32:32.972064","MEAN_MOTION":15.30191153,"ECCENTRICITY":0.0001283,"INCLINATION":53.1614,"RA_OF_ASC_NODE":317.7385,"ARG_OF_PERICENTER":90.7698,"MEAN_ANOMALY":269.345,"EPHEMERIS_TYPE":0,"CLASSIFICATION_TYPE":"U","NORAD_CAT_ID":58394,"ELEMENT_SET_NO":999,"REV_AT_EPOCH":9570,"BSTAR":7.3984e-5,"MEAN_MOTION_DOT":1.832e-5,"MEAN_MOTION_DDOT":0},{"OBJECT_NAME":"STARLINK-30934","OBJECT_ID":"2023-178X","EPOCH":"2025-07-29T12:59:10.465440","MEAN_MOTION":15.30195414,"ECCENTRICITY":0.0001186,"INCLINATION":53.1605,"RA_OF_ASC_NODE":317.8424,"ARG_OF_PERICENTER":107.0753,"MEAN_ANOMALY":253.0377,"EPHEMERIS_TYPE":0,"CLASSIFICATION_TYPE":"U","NORAD_CAT_ID":58395,"ELEMENT_SET_NO":999,"REV_AT_EPOCH":9565,"BSTAR":5.0336e-5,"MEAN_MOTION_DOT":1.132e-5,"MEAN_MOTION_DDOT":0},{"OBJECT_NAME":"STARLINK-30844","OBJECT_ID":"2023-180B","EPOCH":"2025-07-29T00:22:18.745536","MEAN_MOTION":15.02535286,"ECCENTRICITY":0.000122,"INCLINATION":43.0018,"RA_OF_ASC_NODE":191.847,"ARG_OF_PERICENTER":299.6023,"MEAN_ANOMALY":60.4698,"EPHEMERIS_TYPE":0,"CLASSIFICATION_TYPE":"U","NORAD_CAT_ID":58403,"ELEMENT_SET_NO":999,"REV_AT_EPOCH":9382,"BSTAR":5.6628e-6,"MEAN_MOTION_DOT":-1.27e-6,"MEAN_MOTION_DDOT":0},{"OBJECT_NAME":"STARLINK-30876","OBJECT_ID":"2023-180C","EPOCH":"2025-07-29T09:51:53.230464","MEAN_MOTION":15.02539219,"ECCENTRICITY":0.0001801,"INCLINATION":43.0026,"RA_OF_ASC_NODE":189.6542,"ARG_OF_PERICENTER":271.1613,"MEAN_ANOMALY":88.9023,"EPHEMERIS_TYPE":0,"CLASSIFICATION_TYPE":"U","NORAD_CAT_ID":58404,"ELEMENT_SET_NO":999,"REV_AT_EPOCH":9399,"BSTAR":2.2943e-6,"MEAN_MOTION_DOT":-1.73e-6,"MEAN_MOTION_DDOT":0},{"OBJECT_NAME":"STARLINK-30952","OBJECT_ID":"2023-180D","EPOCH":"2025-07-29T09:47:05.437248","MEAN_MOTION":15.02535736,"ECCENTRICITY":0.0001117,"INCLINATION":43.0017,"RA_OF_ASC_NODE":189.6297,"ARG_OF_PERICENTER":289.0459,"MEAN_ANOMALY":71.0262,"EPHEMERIS_TYPE":0,"CLASSIFICATION_TYPE":"U","NORAD_CAT_ID":58405,"ELEMENT_SET_NO":999,"REV_AT_EPOCH":9388,"BSTAR":2.6223e-5,"MEAN_MOTION_DOT":1.51e-6,"MEAN_MOTION_DDOT":0},{"OBJECT_NAME":"STARLINK-30925","OBJECT_ID":"2023-180E","EPOCH":"2025-07-29T09:42:17.758080","MEAN_MOTION":15.02537094,"ECCENTRICITY":0.0001158,"INCLINATION":43.0022,"RA_OF_ASC_NODE":189.6039,"ARG_OF_PERICENTER":284.0695,"MEAN_ANOMALY":76.0019,"EPHEMERIS_TYPE":0,"CLASSIFICATION_TYPE":"U","NORAD_CAT_ID":58406,"ELEMENT_SET_NO":999,"REV_AT_EPOCH":9388,"BSTAR":4.3655e-5,"MEAN_MOTION_DOT":3.86e-6,"MEAN_MOTION_DDOT":0},{"OBJECT_NAME":"STARLINK-30954","OBJECT_ID":"2023-180F","EPOCH":"2025-07-29T10:06:06.191136","MEAN_MOTION":15.02534606,"ECCENTRICITY":0.0001198,"INCLINATION":43.0016,"RA_OF_ASC_NODE":188.8675,"ARG_OF_PERICENTER":292.0533,"MEAN_ANOMALY":68.0182,"EPHEMERIS_TYPE":0,"CLASSIFICATION_TYPE":"U","NORAD_CAT_ID":58407,"ELEMENT_SET_NO":999,"REV_AT_EPOCH":9400,"BSTAR":2.6231e-5,"MEAN_MOTION_DOT":1.51e-6,"MEAN_MOTION_DDOT":0},{"OBJECT_NAME":"STARLINK-30906","OBJECT_ID":"2023-180G","EPOCH":"2025-07-29T05:28:38.944992","MEAN_MOTION":15.02526251,"ECCENTRICITY":0.0001408,"INCLINATION":43.0028,"RA_OF_ASC_NODE":190.6963,"ARG_OF_PERICENTER":279.4133,"MEAN_ANOMALY":80.655,"EPHEMERIS_TYPE":0,"CLASSIFICATION_TYPE":"U","NORAD_CAT_ID":58408,"ELEMENT_SET_NO":999,"REV_AT_EPOCH":9385,"BSTAR":-0.00010349,"MEAN_MOTION_DOT":-1.601e-5,"MEAN_MOTION_DDOT":0},{"OBJECT_NAME":"STARLINK-30940","OBJECT_ID":"2023-180H","EPOCH":"2025-07-29T00:18:56.383776","MEAN_MOTION":15.25908813,"ECCENTRICITY":0.0001615,"INCLINATION":43.0004,"RA_OF_ASC_NODE":88.9116,"ARG_OF_PERICENTER":304.2099,"MEAN_ANOMALY":55.8599,"EPHEMERIS_TYPE":0,"CLASSIFICATION_TYPE":"U","NORAD_CAT_ID":58409,"ELEMENT_SET_NO":999,"REV_AT_EPOCH":9514,"BSTAR":-1.9979e-5,"MEAN_MOTION_DOT":-7.8e-6,"MEAN_MOTION_DDOT":0},{"OBJECT_NAME":"STARLINK-30933","OBJECT_ID":"2023-180J","EPOCH":"2025-07-29T08:30:40.210848","MEAN_MOTION":15.27559233,"ECCENTRICITY":0.0001269,"INCLINATION":42.9985,"RA_OF_ASC_NODE":88.0226,"ARG_OF_PERICENTER":269.5119,"MEAN_ANOMALY":90.5587,"EPHEMERIS_TYPE":0,"CLASSIFICATION_TYPE":"U","NORAD_CAT_ID":58410,"ELEMENT_SET_NO":999,"REV_AT_EPOCH":9518,"BSTAR":-8.1996e-5,"MEAN_MOTION_DOT":-2.516e-5,"MEAN_MOTION_DDOT":0},{"OBJECT_NAME":"STARLINK-30919","OBJECT_ID":"2023-180K","EPOCH":"2025-07-29T10:23:19.144608","MEAN_MOTION":15.02537497,"ECCENTRICITY":0.0001076,"INCLINATION":43.0021,"RA_OF_ASC_NODE":188.031,"ARG_OF_PERICENTER":275.8581,"MEAN_ANOMALY":84.2139,"EPHEMERIS_TYPE":0,"CLASSIFICATION_TYPE":"U","NORAD_CAT_ID":58411,"ELEMENT_SET_NO":999,"REV_AT_EPOCH":9391,"BSTAR":2.6656e-5,"MEAN_MOTION_DOT":1.57e-6,"MEAN_MOTION_DDOT":0},{"OBJECT_NAME":"STARLINK-30924","OBJECT_ID":"2023-180L","EPOCH":"2025-07-29T09:24:18.605664","MEAN_MOTION":15.27589843,"ECCENTRICITY":0.0001977,"INCLINATION":43.0013,"RA_OF_ASC_NODE":88.3007,"ARG_OF_PERICENTER":271.0138,"MEAN_ANOMALY":89.0487,"EPHEMERIS_TYPE":0,"CLASSIFICATION_TYPE":"U","NORAD_CAT_ID":58412,"ELEMENT_SET_NO":999,"REV_AT_EPOCH":9518,"BSTAR":-9.6683e-5,"MEAN_MOTION_DOT":-2.923e-5,"MEAN_MOTION_DDOT":0},{"OBJECT_NAME":"STARLINK-30931","OBJECT_ID":"2023-180M","EPOCH":"2025-07-29T05:08:18.132000","MEAN_MOTION":15.02531791,"ECCENTRICITY":9.39e-5,"INCLINATION":43.001,"RA_OF_ASC_NODE":177.8997,"ARG_OF_PERICENTER":285.6664,"MEAN_ANOMALY":74.4074,"EPHEMERIS_TYPE":0,"CLASSIFICATION_TYPE":"U","NORAD_CAT_ID":58413,"ELEMENT_SET_NO":999,"REV_AT_EPOCH":9411,"BSTAR":4.2037e-6,"MEAN_MOTION_DOT":-1.47e-6,"MEAN_MOTION_DDOT":0}]
