STARLINK-30939          
1 58393U 23178V   25210.59374051  .00000396  00000+0  25503-4 0  9999
2 58393  53.1604 317.3883 0001125  96.4805 263.6324 15.30184195 95606
STARLINK-30887          
1 58394U 23178W   25210.56427051  .00001832  00000+0  73984-4 0  9998
2 58394  53.1614 317.7385 0001283  90.7698 269.3450 15.30191153 95707
STARLINK-30934          
1 58395U 23178X   25210.54109335  .00001132  00000+0  50336-4 0  9998
2 58395  53.1605 317.8424 0001186 107.0753 253.0377 15.30195414 95655
STARLINK-30844          
1 58403U 23180B   25210.01549474 -.00000127  00000+0  56628-5 0  9990
2 58403  43.0018 191.8470 0001220 299.6023  60.4698 15.02535286 93826
STARLINK-30876          
1 58404U 23180C   25210.41103276 -.00000173  00000+0  22943-5 0  9995
2 58404  43.0026 189.6542 0001801 271.1613  88.9023 15.02539219 93991
STARLINK-30952          
1 58405U 23180D   25210.40770182  .00000151  00000+0  26223-4 0  9990
2 58405  43.0017 189.6297 0001117 289.0459  71.0262 15.02535736 93881
STARLINK-30925          
1 58406U 23180E   25210.40437220  .00000386  00000+0  43655-4 0  9992
2 58406  43.0022 189.6039 0001158 284.0695  76.0019 15.02537094 93888
STARLINK-30954          
1 58407U 23180F   25210.42090499  .00000151  00000+0  26231-4 0  9999
2 58407  43.0016 188.8675 0001198 292.0533  68.0182 15.02534606 94006
STARLINK-30906          
1 58408U 23180G   25210.22822853 -.00001601  00000+0 -10349-3 0  9990
2 58408  43.0028 190.6963 0001408 279.4133  80.6550 15.02526251 93858
STARLINK-30940          
1 58409U 23180H   25210.01315259 -.00000780  00000+0 -19979-4 0  9991
2 58409  43.0004  88.9116 0001615 304.2099  55.8599 15.25908813 95144
STARLINK-30933          
1 58410U 23180J   25210.35463207 -.00002516  00000+0 -81996-4 0  9994
2 58410  42.9985  88.0226 0001269 269.5119  90.5587 15.27559233 95183
STARLINK-30919          
1 58411U 23180K   25210.43286047  .00000157  00000+0  26656-4 0  9998
2 58411  43.0021 188.0310 0001076 275.8581  84.2139 15.02537497 93914
STARLINK-30924          
1 58412U 23180L   25210.39188201 -.00002923  00000+0 -96683-4 0  9999
2 58412  43.0013  88.3007 0001977 271.0138  89.0487 15.27589843 95186
STARLINK-30931          
1 58413U 23180M   25210.21409875 -.00000147  00000+0  42037-5 0  9994
2 58413  43.0010 177.8997 0000939 285.6664  74.4074 15.02531791 94112
